COSMOS 2433 (720)       
1 32275U 07052A   23010.22584929 -.00000051  00000+0  00000+0 0  9995
2 32275  66.0668 357.8081 0005189 260.9504 228.8278  2.13104082118372
COSMOS 2432 (719)       
1 32276U 07052B   23011.75599111 -.00000043  00000+0  00000+0 0  9995
2 32276  66.0800 357.8619 0011687 316.6125 214.7531  2.13103339118400
COSMOS 2434 (721)       
1 32393U 07065A   23011.84290054  .00000069  00000+0  00000+0 0  9990
2 32393  64.3543 234.3201 0004388  72.5434 108.0708  2.13103153117114
COSMOS 2436 (723)       
1 32395U 07065C   23011.18681123  .00000066  00000+0  00000+0 0  9997
2 32395  64.3639 234.4020 0016842   6.3194 166.6476  2.13102842117035
COSMOS 2456 (730)       
1 36111U 09070A   23011.39460573  .00000016  00000+0  00000+0 0  9997
2 36111  64.4118 113.9118 0002413 304.3288  55.0063  2.13099043101765
COSMOS 2457 (733)       
1 36112U 09070B   23011.70862252  .00000017  00000+0  00000+0 0  9994
2 36112  64.3957 113.7720 0006143 160.4221 208.7558  2.13101234101789
COSMOS 2460 (732)       
1 36402U 10007C   23011.48515578 -.00000045  00000+0  00000+0 0  9991
2 36402  65.9346 356.5207 0002593 284.9699 258.4759  2.13106326100122
COSMOS 2476 (744)       
1 37867U 11064A   23011.59518528  .00000019  00000+0  00000+0 0  9991
2 37867  64.6972 115.3418 0022007 232.7830 187.7151  2.13101737 87129
COSMOS 2477 (745)       
1 37868U 11064B   23011.69498632  .00000019  00000+0  00000+0 0  9996
2 37868  64.7046 115.4053 0019138 232.9782  82.0866  2.13101518 87079
COSMOS 2475 (743)       
1 37869U 11064C   23011.34262402  .00000018  00000+0  00000+0 0  9992
2 37869  64.7119 115.4274 0023254 251.4494 111.5177  2.13101693 87084
COSMOS 2485 (747)       
1 39155U 13019A   23011.71339932  .00000020  00000+0  00000+0 0  9991
2 39155  64.8594 115.8113 0022378 228.1863 327.3920  2.13101756 75591
COSMOS 2492 (754)       
1 39620U 14012A   23011.04207666 -.00000047  00000+0  00000+0 0  9996
2 39620  65.8196 356.1886 0014836 315.0539 119.8219  2.13103144 68534
COSMOS 2500 (755)       
1 40001U 14032A   23010.41946291 -.00000051  00000+0  00000+0 0  9992
2 40001  65.7582 356.0549 0007374 223.5752 311.7287  2.13102406 66739
COSMOS 2501 (702K)      
1 40315U 14075A   23011.97738866  .00000070  00000+0  00000+0 0  9996
2 40315  63.6599 233.8766 0017185 205.6214 253.8668  2.13101353 63174
COSMOS 2514 (751)       
1 41330U 16008A   23009.95073653 -.00000054  00000+0  00000+0 0  9996
2 41330  65.5579 355.7100 0010965 226.0002 133.9147  2.13102770 53890
COSMOS 2516 (753)       
1 41554U 16032A   23010.54134053  .00000064  00000+0  00000+0 0  9990
2 41554  63.8866 234.2610 0013800 212.1090 147.8856  2.13106440 51515
COSMOS 2522 (752)       
1 42939U 17055A   23011.81289927  .00000068  00000+0  00000+0 0  9990
2 42939  64.1192 234.6734 0005587 241.5905 227.2982  2.13102063 41298
COSMOS 2527 (756)       
1 43508U 18053A   23011.64308752  .00000020  00000+0  00000+0 0  9999
2 43508  65.0217 115.8572 0008182 220.2530 150.3458  2.13102414 35580
COSMOS 2529 (757)       
1 43687U 18086A   23011.88157881  .00000068  00000+0  00000+0 0  9996
2 43687  64.3363 235.0434 0007604 272.3713 204.6854  2.13102104 32602
COSMOS 2534 (758)       
1 44299U 19030A   23011.67551008  .00000067  00000+0  00000+0 0  9991
2 44299  64.4069 234.9541 0010567 294.8762 158.4623  2.13101894 28248
COSMOS 2544 (759)       
1 44850U 19088A   23010.64390071  .00000018  00000+0  16595+1 0  9997
2 44850  65.0063 115.7397 0012002 251.6187 115.7271  2.13102179 23994
COSMOS 2545 (760)       
1 45358U 20018A   23011.53065902 -.00000047  00000+0  00000+0 0  9993
2 45358  64.8963 356.0949 0011458 254.8443 282.0238  2.13102639 21968
COSMOS 2547 (705K)      
1 46805U 20075A   23011.25717887  .00000066  00000+0  00000+0 0  9999
2 46805  64.6332 234.4544 0005588 244.4619 296.3425  2.13102969 17205
COSMOS 2557 (706K)      
1 52984U 22075A   23010.70813250 -.00000051  00000+0  10000-3 0  9996
2 52984  64.8046 358.3080 0014037 282.3251  74.2967  2.13101827  3983
COSMOS 2559 (707K)      
1 54031U 22130A   23011.30384810 -.00000048  00000+0  00000+0 0  9996
2 54031  64.7757 358.4232 0007226 236.3927 262.5067  2.13101203  1986
COSMOS 2564 (761)       
1 54377U 22161A   23011.78035370  .00000069  00000+0  00000+0 0  9991
2 54377  64.7735 234.4474 0006868 213.9501 140.7235  2.13102379   939
